CCSDS_OMM_VERS = 2.0
CREATION_DATE  = 
ORIGINATOR     = 

OBJECT_NAME    = COSMOS 1933
OBJECT_ID      = 1988-020A
CENTER_NAME    = EARTH
REF_FRAME      = TEME
TIME_SYSTEM    = UTC
MEAN_ELEMENT_THEORY = SGP/SGP4

EPOCH          = 2026-02-04T04:02:05.452224
MEAN_MOTION    = 15.17687517
ECCENTRICITY   = .00034951
INCLINATION    = 82.5128
RA_OF_ASC_NODE = 284.0755
ARG_OF_PERICENTER = 341.2977
MEAN_ANOMALY   = 18.8127

EPHEMERIS_TYPE = 0
CLASSIFICATION_TYPE = U
NORAD_CAT_ID   = 18958
ELEMENT_SET_NO = 999
REV_AT_EPOCH   = 4514
BSTAR          = .25280948E-3
MEAN_MOTION_DOT = .5123E-4
MEAN_MOTION_DDOT = 0

CCSDS_OMM_VERS = 2.0
CREATION_DATE  = 
ORIGINATOR     = 

OBJECT_NAME    = SL-3 R/B
OBJECT_ID      = 1988-032B
CENTER_NAME    = EARTH
REF_FRAME      = TEME
TIME_SYSTEM    = UTC
MEAN_ELEMENT_THEORY = SGP/SGP4

EPOCH          = 2026-02-04T05:13:12.597024
MEAN_MOTION    = 15.19461613
ECCENTRICITY   = .00260611
INCLINATION    = 97.5145
RA_OF_ASC_NODE = 18.6114
ARG_OF_PERICENTER = 355.2616
MEAN_ANOMALY   = 4.8368

EPHEMERIS_TYPE = 0
CLASSIFICATION_TYPE = U
NORAD_CAT_ID   = 19046
ELEMENT_SET_NO = 999
REV_AT_EPOCH   = 4702
BSTAR          = .33817806E-3
MEAN_MOTION_DOT = .7166E-4
MEAN_MOTION_DDOT = 0

CCSDS_OMM_VERS = 2.0
CREATION_DATE  = 
ORIGINATOR     = 

OBJECT_NAME    = SL-16 R/B
OBJECT_ID      = 1988-039B
CENTER_NAME    = EARTH
REF_FRAME      = TEME
TIME_SYSTEM    = UTC
MEAN_ELEMENT_THEORY = SGP/SGP4

EPOCH          = 2026-02-04T07:10:42.795552
MEAN_MOTION    = 14.19611405
ECCENTRICITY   = .00207299
INCLINATION    = 71.0152
RA_OF_ASC_NODE = 139.1540
ARG_OF_PERICENTER = 25.6418
MEAN_ANOMALY   = 334.5731

EPHEMERIS_TYPE = 0
CLASSIFICATION_TYPE = U
NORAD_CAT_ID   = 19120
ELEMENT_SET_NO = 999
REV_AT_EPOCH   = 95364
BSTAR          = .34758844E-4
MEAN_MOTION_DOT = .25E-6
MEAN_MOTION_DDOT = 0

CCSDS_OMM_VERS = 2.0
CREATION_DATE  = 
ORIGINATOR     = 

OBJECT_NAME    = COSMOS 1953
OBJECT_ID      = 1988-050A
CENTER_NAME    = EARTH
REF_FRAME      = TEME
TIME_SYSTEM    = UTC
MEAN_ELEMENT_THEORY = SGP/SGP4

EPOCH          = 2026-02-04T03:58:33.757536
MEAN_MOTION    = 15.27823920
ECCENTRICITY   = .00104899
INCLINATION    = 82.5087
RA_OF_ASC_NODE = 191.9394
ARG_OF_PERICENTER = 239.8886
MEAN_ANOMALY   = 120.1314

EPHEMERIS_TYPE = 0
CLASSIFICATION_TYPE = U
NORAD_CAT_ID   = 19210
ELEMENT_SET_NO = 999
REV_AT_EPOCH   = 3266
BSTAR          = .40402247E-3
MEAN_MOTION_DOT = .11026E-3
MEAN_MOTION_DDOT = 0

CCSDS_OMM_VERS = 2.0
CREATION_DATE  = 
ORIGINATOR     = 

OBJECT_NAME    = SL-8 R/B
OBJECT_ID      = 1988-053B
CENTER_NAME    = EARTH
REF_FRAME      = TEME
TIME_SYSTEM    = UTC
MEAN_ELEMENT_THEORY = SGP/SGP4

EPOCH          = 2026-02-03T21:15:06.966720
MEAN_MOTION    = 14.38894653
ECCENTRICITY   = .00201869
INCLINATION    = 74.0476
RA_OF_ASC_NODE = 174.7693
ARG_OF_PERICENTER = 0.6140
MEAN_ANOMALY   = 155.3312

EPHEMERIS_TYPE = 0
CLASSIFICATION_TYPE = U
NORAD_CAT_ID   = 19257
ELEMENT_SET_NO = 999
REV_AT_EPOCH   = 97173
BSTAR          = .94381657E-4
MEAN_MOTION_DOT = .265E-5
MEAN_MOTION_DDOT = 0

CCSDS_OMM_VERS = 2.0
CREATION_DATE  = 
ORIGINATOR     = 

OBJECT_NAME    = COSMOS 1975
OBJECT_ID      = 1988-093A
CENTER_NAME    = EARTH
REF_FRAME      = TEME
TIME_SYSTEM    = UTC
MEAN_ELEMENT_THEORY = SGP/SGP4

EPOCH          = 2026-02-04T07:42:54.572544
MEAN_MOTION    = 15.27466198
ECCENTRICITY   = .00103674
INCLINATION    = 82.5228
RA_OF_ASC_NODE = 151.1552
ARG_OF_PERICENTER = 289.6324
MEAN_ANOMALY   = 70.3795

EPHEMERIS_TYPE = 0
CLASSIFICATION_TYPE = U
NORAD_CAT_ID   = 19573
ELEMENT_SET_NO = 999
REV_AT_EPOCH   = 1431
BSTAR          = .36905298E-3
MEAN_MOTION_DOT = .9965E-4
MEAN_MOTION_DDOT = 0

CCSDS_OMM_VERS = 2.0
CREATION_DATE  = 
ORIGINATOR     = 

OBJECT_NAME    = SL-14 R/B
OBJECT_ID      = 1988-093B
CENTER_NAME    = EARTH
REF_FRAME      = TEME
TIME_SYSTEM    = UTC
MEAN_ELEMENT_THEORY = SGP/SGP4

EPOCH          = 2026-02-04T04:31:14.694528
MEAN_MOTION    = 14.85618747
ECCENTRICITY   = .00216024
INCLINATION    = 82.5283
RA_OF_ASC_NODE = 73.5021
ARG_OF_PERICENTER = 145.5003
MEAN_ANOMALY   = 278.3556

EPHEMERIS_TYPE = 0
CLASSIFICATION_TYPE = U
NORAD_CAT_ID   = 19574
ELEMENT_SET_NO = 999
REV_AT_EPOCH   = 99606
BSTAR          = .53869258E-4
MEAN_MOTION_DOT = .493E-5
MEAN_MOTION_DDOT = 0

CCSDS_OMM_VERS = 2.0
CREATION_DATE  = 
ORIGINATOR     = 

OBJECT_NAME    = SL-16 R/B
OBJECT_ID      = 1988-102B
CENTER_NAME    = EARTH
REF_FRAME      = TEME
TIME_SYSTEM    = UTC
MEAN_ELEMENT_THEORY = SGP/SGP4

EPOCH          = 2026-02-04T00:00:09.257760
MEAN_MOTION    = 14.16145906
ECCENTRICITY   = .00122357
INCLINATION    = 70.9970
RA_OF_ASC_NODE = 222.3794
ARG_OF_PERICENTER = 57.4198
MEAN_ANOMALY   = 302.8105

EPHEMERIS_TYPE = 0
CLASSIFICATION_TYPE = U
NORAD_CAT_ID   = 19650
ELEMENT_SET_NO = 999
REV_AT_EPOCH   = 92212
BSTAR          = -.21506E-4
MEAN_MOTION_DOT = -.9E-6
MEAN_MOTION_DDOT = 0

CCSDS_OMM_VERS = 2.0
CREATION_DATE  = 
ORIGINATOR     = 

OBJECT_NAME    = INTERCOSMOS 24
OBJECT_ID      = 1989-080A
CENTER_NAME    = EARTH
REF_FRAME      = TEME
TIME_SYSTEM    = UTC
MEAN_ELEMENT_THEORY = SGP/SGP4

EPOCH          = 2026-02-04T06:49:04.036800
MEAN_MOTION    = 12.59512206
ECCENTRICITY   = .11883048
INCLINATION    = 82.6071
RA_OF_ASC_NODE = 126.1453
ARG_OF_PERICENTER = 10.3838
MEAN_ANOMALY   = 351.9615

EPHEMERIS_TYPE = 0
CLASSIFICATION_TYPE = U
NORAD_CAT_ID   = 20261
ELEMENT_SET_NO = 999
REV_AT_EPOCH   = 66259
BSTAR          = .17112416E-3
MEAN_MOTION_DOT = .596E-5
MEAN_MOTION_DDOT = 0

CCSDS_OMM_VERS = 2.0
CREATION_DATE  = 
ORIGINATOR     = 

OBJECT_NAME    = SL-14 R/B
OBJECT_ID      = 1989-080C
CENTER_NAME    = EARTH
REF_FRAME      = TEME
TIME_SYSTEM    = UTC
MEAN_ELEMENT_THEORY = SGP/SGP4

EPOCH          = 2026-02-04T04:31:37.948224
MEAN_MOTION    = 12.50453904
ECCENTRICITY   = .1229415
INCLINATION    = 82.5938
RA_OF_ASC_NODE = 194.6935
ARG_OF_PERICENTER = 261.3665
MEAN_ANOMALY   = 84.6574

EPHEMERIS_TYPE = 0
CLASSIFICATION_TYPE = U
NORAD_CAT_ID   = 20262
ELEMENT_SET_NO = 999
REV_AT_EPOCH   = 65596
BSTAR          = .11434734E-3
MEAN_MOTION_DOT = .377E-5
MEAN_MOTION_DDOT = 0

CCSDS_OMM_VERS = 2.0
CREATION_DATE  = 
ORIGINATOR     = 

OBJECT_NAME    = DELTA 1 R/B
OBJECT_ID      = 1989-089B
CENTER_NAME    = EARTH
REF_FRAME      = TEME
TIME_SYSTEM    = UTC
MEAN_ELEMENT_THEORY = SGP/SGP4

EPOCH          = 2026-02-04T04:00:30.994560
MEAN_MOTION    = 14.50633500
ECCENTRICITY   = .00679265
INCLINATION    = 97.0729
RA_OF_ASC_NODE = 247.9320
ARG_OF_PERICENTER = 227.8808
MEAN_ANOMALY   = 131.6605

EPHEMERIS_TYPE = 0
CLASSIFICATION_TYPE = U
NORAD_CAT_ID   = 20323
ELEMENT_SET_NO = 999
REV_AT_EPOCH   = 89087
BSTAR          = .11592152E-3
MEAN_MOTION_DOT = .433E-5
MEAN_MOTION_DDOT = 0

CCSDS_OMM_VERS = 2.0
CREATION_DATE  = 
ORIGINATOR     = 

OBJECT_NAME    = ARIANE 40 R/B
OBJECT_ID      = 1990-005H
CENTER_NAME    = EARTH
REF_FRAME      = TEME
TIME_SYSTEM    = UTC
MEAN_ELEMENT_THEORY = SGP/SGP4

EPOCH          = 2026-02-04T04:18:36.457632
MEAN_MOTION    = 14.39847145
ECCENTRICITY   = .00090858
INCLINATION    = 98.3153
RA_OF_ASC_NODE = 96.8271
ARG_OF_PERICENTER = 309.6669
MEAN_ANOMALY   = 50.3718

EPHEMERIS_TYPE = 0
CLASSIFICATION_TYPE = U
NORAD_CAT_ID   = 20443
ELEMENT_SET_NO = 999
REV_AT_EPOCH   = 88798
BSTAR          = .11249616E-3
MEAN_MOTION_DOT = .311E-5
MEAN_MOTION_DDOT = 0

