COSMOS 1933             
1 18958U 88020A   26035.16811866  .00005123  00000+0  25281-3 0  9993
2 18958  82.5128 284.0755 0003495 341.2977  18.8127 15.17687517 45143
SL-3 R/B                
1 19046U 88032B   26035.21750691  .00007166  00000+0  33818-3 0  9993
2 19046  97.5145  18.6114 0026061 355.2616   4.8368 15.19461613 47026
SL-16 R/B               
1 19120U 88039B   26035.29910643  .00000025  00000+0  34759-4 0  9999
2 19120  71.0152 139.1540 0020729  25.6418 334.5731 14.19611405953645
COSMOS 1953             
1 19210U 88050A   26035.16566849  .00011026  00000+0  40402-3 0  9997
2 19210  82.5087 191.9394 0010489 239.8886 120.1314 15.27823920 32665
SL-8 R/B                
1 19257U 88053B   26034.88549730  .00000265  00000+0  94382-4 0  9999
2 19257  74.0476 174.7693 0020186   0.6140 155.3312 14.38894653971737
COSMOS 1975             
1 19573U 88093A   26035.32146496  .00009965  00000+0  36905-3 0  9998
2 19573  82.5228 151.1552 0010367 289.6324  70.3795 15.27466198 14314
SL-14 R/B               
1 19574U 88093B   26035.18836452  .00000493  00000+0  53869-4 0  9997
2 19574  82.5283  73.5021 0021602 145.5003 278.3556 14.85618747996060
SL-16 R/B               
1 19650U 88102B   26035.00010715 -.00000090  00000+0 -21506-4 0  9998
2 19650  70.9970 222.3794 0012235  57.4198 302.8105 14.16145906922123
INTERCOSMOS 24          
1 20261U 89080A   26035.28407450  .00000596  00000+0  17112-3 0  9996
2 20261  82.6071 126.1453 1188304  10.3838 351.9615 12.59512206662598
SL-14 R/B               
1 20262U 89080C   26035.18863366  .00000377  00000+0  11435-3 0  9997
2 20262  82.5938 194.6935 1229415 261.3665  84.6574 12.50453904655967
DELTA 1 R/B             
1 20323U 89089B   26035.16702540  .00000433  00000+0  11592-3 0  9995
2 20323  97.0729 247.9320 0067926 227.8808 131.6605 14.50633500890879
ARIANE 40 R/B           
1 20443U 90005H   26035.17958863  .00000311  00000+0  11250-3 0  9996
2 20443  98.3153  96.8271 0009085 309.6669  50.3718 14.39847145887988
